[{"OBJECT_NAME":"STARLINK-4362","OBJECT_ID":"2022-077A","EPOCH":"2026-03-09T23:25:33.150432","MEAN_MOTION":15.01261785,"ECCENTRICITY":0.00026308,"INCLINATION":97.6021,"RA_OF_ASC_NODE":250.5038,"ARG_OF_PERICENTER":62.7524,"MEAN_ANOMALY":297.3968,"EPHEMERIS_TYPE":0,"CLASSIFICATION_TYPE":"U","NORAD_CAT_ID":53043,"ELEMENT_SET_NO":999,"REV_AT_EPOCH":20096,"BSTAR":3.1779954e-5,"MEAN_MOTION_DOT":3.5e-6,"MEAN_MOTION_DDOT":0},{"OBJECT_NAME":"PEGASUS DEB","OBJECT_ID":"1994-029YH","EPOCH":"2026-03-09T13:48:40.247712","MEAN_MOTION":13.39711213,"ECCENTRICITY":0.0728479,"INCLINATION":81.5431,"RA_OF_ASC_NODE":97.4781,"ARG_OF_PERICENTER":287.3771,"MEAN_ANOMALY":203.8925,"EPHEMERIS_TYPE":0,"CLASSIFICATION_TYPE":"U","NORAD_CAT_ID":24581,"ELEMENT_SET_NO":999,"REV_AT_EPOCH":42256,"BSTAR":0.0015334,"MEAN_MOTION_DOT":4.131e-5,"MEAN_MOTION_DDOT":0}]
